[{"OBJECT_NAME":"STARLINK-36909","OBJECT_ID":"2026-037Q","EPOCH":"2026-03-21T12:00:00.999648","MEAN_MOTION":15.71419164,"ECCENTRICITY":0.00013249,"INCLINATION":42.9993,"RA_OF_ASC_NODE":126.1695,"ARG_OF_PERICENTER":277.2598,"MEAN_ANOMALY":31.4677,"EPHEMERIS_TYPE":0,"CLASSIFICATION_TYPE":"U","NORAD_CAT_ID":67946,"ELEMENT_SET_NO":999,"REV_AT_EPOCH":509,"BSTAR":-0.016020379,"MEAN_MOTION_DOT":-0.01837657,"MEAN_MOTION_DDOT":0},{"OBJECT_NAME":"STARLINK-36920","OBJECT_ID":"2026-037R","EPOCH":"2026-03-21T12:00:00.999648","MEAN_MOTION":15.60259754,"ECCENTRICITY":9.773e-5,"INCLINATION":42.9991,"RA_OF_ASC_NODE":126.5448,"ARG_OF_PERICENTER":283.9806,"MEAN_ANOMALY":233.8975,"EPHEMERIS_TYPE":0,"CLASSIFICATION_TYPE":"U","NORAD_CAT_ID":67947,"ELEMENT_SET_NO":999,"REV_AT_EPOCH":509,"BSTAR":-0.025149496,"MEAN_MOTION_DOT":-0.01869152,"MEAN_MOTION_DDOT":0},{"OBJECT_NAME":"STARLINK-36873","OBJECT_ID":"2026-037S","EPOCH":"2026-03-21T12:00:00.999648","MEAN_MOTION":15.59016697,"ECCENTRICITY":9.997e-5,"INCLINATION":42.9992,"RA_OF_ASC_NODE":126.5926,"ARG_OF_PERICENTER":293.9296,"MEAN_ANOMALY":204.247,"EPHEMERIS_TYPE":0,"CLASSIFICATION_TYPE":"U","NORAD_CAT_ID":67948,"ELEMENT_SET_NO":999,"REV_AT_EPOCH":509,"BSTAR":-0.026421633,"MEAN_MOTION_DOT":-0.01871454,"MEAN_MOTION_DDOT":0},{"OBJECT_NAME":"STARLINK-36863","OBJECT_ID":"2026-037T","EPOCH":"2026-03-21T12:00:00.999648","MEAN_MOTION":15.63583775,"ECCENTRICITY":0.00011416,"INCLINATION":42.9995,"RA_OF_ASC_NODE":126.3814,"ARG_OF_PERICENTER":276.7991,"MEAN_ANOMALY":306.97,"EPHEMERIS_TYPE":0,"CLASSIFICATION_TYPE":"U","NORAD_CAT_ID":67949,"ELEMENT_SET_NO":999,"REV_AT_EPOCH":509,"BSTAR":-0.022251374,"MEAN_MOTION_DOT":-0.01882947,"MEAN_MOTION_DDOT":0},{"OBJECT_NAME":"STARLINK-36887","OBJECT_ID":"2026-037U","EPOCH":"2026-03-21T12:00:00.999648","MEAN_MOTION":15.50576308,"ECCENTRICITY":0.00012845,"INCLINATION":42.9994,"RA_OF_ASC_NODE":127.1335,"ARG_OF_PERICENTER":295.3566,"MEAN_ANOMALY":344.7954,"EPHEMERIS_TYPE":0,"CLASSIFICATION_TYPE":"U","NORAD_CAT_ID":67950,"ELEMENT_SET_NO":999,"REV_AT_EPOCH":509,"BSTAR":-0.00093948972,"MEAN_MOTION_DOT":-0.00055065,"MEAN_MOTION_DDOT":0},{"OBJECT_NAME":"STARLINK-36897","OBJECT_ID":"2026-037V","EPOCH":"2026-03-21T12:00:00.999648","MEAN_MOTION":15.62562442,"ECCENTRICITY":0.00010953,"INCLINATION":42.9996,"RA_OF_ASC_NODE":126.4009,"ARG_OF_PERICENTER":276.8195,"MEAN_ANOMALY":298.8237,"EPHEMERIS_TYPE":0,"CLASSIFICATION_TYPE":"U","NORAD_CAT_ID":67951,"ELEMENT_SET_NO":999,"REV_AT_EPOCH":509,"BSTAR":-0.023157101,"MEAN_MOTION_DOT":-0.01881853,"MEAN_MOTION_DDOT":0},{"OBJECT_NAME":"STARLINK-36381","OBJECT_ID":"2026-037W","EPOCH":"2026-03-21T12:00:00.999648","MEAN_MOTION":15.61055448,"ECCENTRICITY":9.884e-5,"INCLINATION":42.9996,"RA_OF_ASC_NODE":126.4439,"ARG_OF_PERICENTER":291.4043,"MEAN_ANOMALY":266.9292,"EPHEMERIS_TYPE":0,"CLASSIFICATION_TYPE":"U","NORAD_CAT_ID":67952,"ELEMENT_SET_NO":999,"REV_AT_EPOCH":509,"BSTAR":-0.024048473,"MEAN_MOTION_DOT":-0.01846415,"MEAN_MOTION_DDOT":0},{"OBJECT_NAME":"STARLINK-36824","OBJECT_ID":"2026-037X","EPOCH":"2026-03-21T12:00:00.999648","MEAN_MOTION":15.5131376,"ECCENTRICITY":0.00010301,"INCLINATION":42.9995,"RA_OF_ASC_NODE":126.9757,"ARG_OF_PERICENTER":280.1706,"MEAN_ANOMALY":63.9472,"EPHEMERIS_TYPE":0,"CLASSIFICATION_TYPE":"U","NORAD_CAT_ID":67953,"ELEMENT_SET_NO":999,"REV_AT_EPOCH":509,"BSTAR":-0.019323735,"MEAN_MOTION_DOT":-0.01056846,"MEAN_MOTION_DDOT":0},{"OBJECT_NAME":"STARLINK-36869","OBJECT_ID":"2026-037Y","EPOCH":"2026-03-21T12:00:00.999648","MEAN_MOTION":15.5094339,"ECCENTRICITY":0.00011704,"INCLINATION":42.9994,"RA_OF_ASC_NODE":126.9662,"ARG_OF_PERICENTER":305.5324,"MEAN_ANOMALY":41.6447,"EPHEMERIS_TYPE":0,"CLASSIFICATION_TYPE":"U","NORAD_CAT_ID":67954,"ELEMENT_SET_NO":999,"REV_AT_EPOCH":509,"BSTAR":-0.011369449,"MEAN_MOTION_DOT":-0.00624685,"MEAN_MOTION_DDOT":0},{"OBJECT_NAME":"STARLINK-36872","OBJECT_ID":"2026-037Z","EPOCH":"2026-03-21T12:00:00.999648","MEAN_MOTION":15.64832455,"ECCENTRICITY":0.00012797,"INCLINATION":42.9994,"RA_OF_ASC_NODE":126.2567,"ARG_OF_PERICENTER":271.1941,"MEAN_ANOMALY":1.5743,"EPHEMERIS_TYPE":0,"CLASSIFICATION_TYPE":"U","NORAD_CAT_ID":67955,"ELEMENT_SET_NO":999,"REV_AT_EPOCH":509,"BSTAR":-0.021208893,"MEAN_MOTION_DOT":-0.01886462,"MEAN_MOTION_DDOT":0},{"OBJECT_NAME":"STARLINK-36918","OBJECT_ID":"2026-037AA","EPOCH":"2026-03-21T12:00:00.999648","MEAN_MOTION":15.61411448,"ECCENTRICITY":0.0001123,"INCLINATION":42.9993,"RA_OF_ASC_NODE":126.3849,"ARG_OF_PERICENTER":275.2061,"MEAN_ANOMALY":306.2418,"EPHEMERIS_TYPE":0,"CLASSIFICATION_TYPE":"U","NORAD_CAT_ID":67956,"ELEMENT_SET_NO":999,"REV_AT_EPOCH":509,"BSTAR":-0.024257972,"MEAN_MOTION_DOT":-0.01883824,"MEAN_MOTION_DDOT":0},{"OBJECT_NAME":"STARLINK-36829","OBJECT_ID":"2026-037AB","EPOCH":"2026-03-21T12:00:00.999648","MEAN_MOTION":15.57997747,"ECCENTRICITY":0.00011112,"INCLINATION":42.9995,"RA_OF_ASC_NODE":126.5689,"ARG_OF_PERICENTER":288.8355,"MEAN_ANOMALY":218.834,"EPHEMERIS_TYPE":0,"CLASSIFICATION_TYPE":"U","NORAD_CAT_ID":67957,"ELEMENT_SET_NO":999,"REV_AT_EPOCH":509,"BSTAR":-0.02710864,"MEAN_MOTION_DOT":-0.01849634,"MEAN_MOTION_DDOT":0},{"OBJECT_NAME":"STARLINK-36799","OBJECT_ID":"2026-037AC","EPOCH":"2026-03-21T12:00:00.999648","MEAN_MOTION":15.67297976,"ECCENTRICITY":0.000134,"INCLINATION":42.9992,"RA_OF_ASC_NODE":126.152,"ARG_OF_PERICENTER":277.3501,"MEAN_ANOMALY":37.8078,"EPHEMERIS_TYPE":0,"CLASSIFICATION_TYPE":"U","NORAD_CAT_ID":67958,"ELEMENT_SET_NO":999,"REV_AT_EPOCH":509,"BSTAR":-0.019105702,"MEAN_MOTION_DOT":-0.01879714,"MEAN_MOTION_DDOT":0},{"OBJECT_NAME":"STARLINK-36834","OBJECT_ID":"2026-037AD","EPOCH":"2026-03-21T12:00:00.999648","MEAN_MOTION":15.57776386,"ECCENTRICITY":0.00012126,"INCLINATION":42.9993,"RA_OF_ASC_NODE":126.5261,"ARG_OF_PERICENTER":290.1976,"MEAN_ANOMALY":234.3136,"EPHEMERIS_TYPE":0,"CLASSIFICATION_TYPE":"U","NORAD_CAT_ID":67959,"ELEMENT_SET_NO":999,"REV_AT_EPOCH":509,"BSTAR":-0.027313765,"MEAN_MOTION_DOT":-0.01848249,"MEAN_MOTION_DDOT":0},{"OBJECT_NAME":"STARLINK-36841","OBJECT_ID":"2026-037AE","EPOCH":"2026-03-21T12:00:00.999648","MEAN_MOTION":15.58755152,"ECCENTRICITY":0.00010442,"INCLINATION":42.9996,"RA_OF_ASC_NODE":126.4866,"ARG_OF_PERICENTER":283.8896,"MEAN_ANOMALY":256.3052,"EPHEMERIS_TYPE":0,"CLASSIFICATION_TYPE":"U","NORAD_CAT_ID":67960,"ELEMENT_SET_NO":999,"REV_AT_EPOCH":509,"BSTAR":-0.026343771,"MEAN_MOTION_DOT":-0.01850095,"MEAN_MOTION_DDOT":0},{"OBJECT_NAME":"STARLINK-36912","OBJECT_ID":"2026-038A","EPOCH":"2026-03-21T12:00:00.999648","MEAN_MOTION":15.53334275,"ECCENTRICITY":0.00018575,"INCLINATION":97.2853,"RA_OF_ASC_NODE":91.3182,"ARG_OF_PERICENTER":97.6371,"MEAN_ANOMALY":171.5706,"EPHEMERIS_TYPE":0,"CLASSIFICATION_TYPE":"U","NORAD_CAT_ID":67961,"ELEMENT_SET_NO":999,"REV_AT_EPOCH":510,"BSTAR":-0.03992282,"MEAN_MOTION_DOT":-0.02222639,"MEAN_MOTION_DDOT":0}]
