STARLINK-36909          
1 67946U 26037Q   26080.50001157 -.01837657  00000+0 -16020-1 0  9993
2 67946  42.9993 126.1695 0001324 277.2598  31.4677 15.71419164  5091
STARLINK-36920          
1 67947U 26037R   26080.50001157 -.01869152  00000+0 -25149-1 0  9991
2 67947  42.9991 126.5448 0000977 283.9806 233.8975 15.60259754  5093
STARLINK-36873          
1 67948U 26037S   26080.50001157 -.01871454  00000+0 -26422-1 0  9995
2 67948  42.9992 126.5926 0000999 293.9296 204.2470 15.59016697  5091
STARLINK-36863          
1 67949U 26037T   26080.50001157 -.01882947  00000+0 -22251-1 0  9991
2 67949  42.9995 126.3814 0001141 276.7991 306.9700 15.63583775  5097
STARLINK-36887          
1 67950U 26037U   26080.50001157 -.00055065  00000+0 -93949-3 0  9999
2 67950  42.9994 127.1335 0001284 295.3566 344.7954 15.50576308  5099
STARLINK-36897          
1 67951U 26037V   26080.50001157 -.01881853  00000+0 -23157-1 0  9995
2 67951  42.9996 126.4009 0001095 276.8195 298.8237 15.62562442  5094
STARLINK-36381          
1 67952U 26037W   26080.50001157 -.01846415  00000+0 -24048-1 0  9991
2 67952  42.9996 126.4439 0000988 291.4043 266.9292 15.61055448  5096
STARLINK-36824          
1 67953U 26037X   26080.50001157 -.01056846  00000+0 -19324-1 0  9994
2 67953  42.9995 126.9757 0001030 280.1706  63.9472 15.51313760  5092
STARLINK-36869          
1 67954U 26037Y   26080.50001157 -.00624685  00000+0 -11369-1 0  9997
2 67954  42.9994 126.9662 0001170 305.5324  41.6447 15.50943390  5092
STARLINK-36872          
1 67955U 26037Z   26080.50001157 -.01886462  00000+0 -21209-1 0  9996
2 67955  42.9994 126.2567 0001279 271.1941   1.5743 15.64832455  5091
STARLINK-36918          
1 67956U 26037AA  26080.50001157 -.01883824  00000+0 -24258-1 0  9993
2 67956  42.9993 126.3849 0001123 275.2061 306.2418 15.61411448  5097
STARLINK-36829          
1 67957U 26037AB  26080.50001157 -.01849634  00000+0 -27109-1 0  9993
2 67957  42.9995 126.5689 0001111 288.8355 218.8340 15.57997747  5095
STARLINK-36799          
1 67958U 26037AC  26080.50001157 -.01879714  00000+0 -19106-1 0  9994
2 67958  42.9992 126.1520 0001340 277.3501  37.8078 15.67297976  5098
STARLINK-36834          
1 67959U 26037AD  26080.50001157 -.01848249  00000+0 -27314-1 0  9994
2 67959  42.9993 126.5261 0001212 290.1976 234.3136 15.57776386  5098
STARLINK-36841          
1 67960U 26037AE  26080.50001157 -.01850095  00000+0 -26344-1 0  9990
2 67960  42.9996 126.4866 0001044 283.8896 256.3052 15.58755152  5096
STARLINK-36912          
1 67961U 26038A   26080.50001157 -.02222639  00000+0 -39923-1 0  9997
2 67961  97.2853  91.3182 0001857  97.6371 171.5706 15.53334275  5104
